[
    {
        "CCSDS_OMM_VERS": "3.0",
        "COMMENT": "GENERATED VIA SPACE-TRACK.ORG API",
        "CREATION_DATE": "2025-04-12T22:09:39",
        "ORIGINATOR": "18 SPCS",
        "OBJECT_NAME": "COSMOS 2584(GLONASS)",
        "OBJECT_ID": "2025-042A",
        "CENTER_NAME": "EARTH",
        "REF_FRAME": "TEME",
        "TIME_SYSTEM": "UTC",
        "MEAN_ELEMENT_THEORY": "SGP4",
        "EPOCH": "2025-04-12T08:41:23.566848",
        "MEAN_MOTION": "2.13103606",
        "ECCENTRICITY": "0.00076270",
        "INCLINATION": "64.8442",
        "RA_OF_ASC_NODE": "87.4747",
        "ARG_OF_PERICENTER": "237.2279",
        "MEAN_ANOMALY": "122.6925",
        "EPHEMERIS_TYPE": "0",
        "CLASSIFICATION_TYPE": "U",
        "NORAD_CAT_ID": "63130",
        "ELEMENT_SET_NO": "999",
        "REV_AT_EPOCH": "86",
        "BSTAR": "0.00000000000000",
        "MEAN_MOTION_DOT": "0.00000024",
        "MEAN_MOTION_DDOT": "0.0000000000000",
        "SEMIMAJOR_AXIS": "25507.896",
        "PERIOD": "675.728",
        "APOAPSIS": "19149.216",
        "PERIAPSIS": "19110.306",
        "OBJECT_TYPE": "PAYLOAD",
        "RCS_SIZE": "LARGE",
        "COUNTRY_CODE": "CIS",
        "LAUNCH_DATE": "2025-03-02",
        "SITE": "PKMTR",
        "DECAY_DATE": null,
        "FILE": "4699941",
        "GP_ID": "285459768",
        "TLE_LINE0": "0 COSMOS 2584(GLONASS)",
        "TLE_LINE1": "1 63130U 25042A   25102.36207832  .00000024  00000-0  00000-0 0  9993",
        "TLE_LINE2": "2 63130  64.8442  87.4747 0007627 237.2279 122.6925  2.13103606   867"
    }
]